NORAD_CAT_ID,OBJECT_NAME,OBJECT_TYPE,EPOCH,MEAN_MOTION,ECCENTRICITY,INCLINATION,RA_OF_ASC_NODE,ARG_OF_PERICENTER,MEAN_ANOMALY,BSTAR,MEAN_MOTION_DOT,MEAN_MOTION_DDOT,TLE_LINE0,TLE_LINE1,TLE_LINE2,SEMIMAJOR_AXIS,PERIOD,APOGEE,PERIGEE,DECAYED
54074.0,STARLINK-5192,PAYLOAD,2024-03-27 21:38:57,15.08842971,0.0001166,53.2183,299.0732,89.0831,271.0295,5.9858e-05,6.65e-06,0.0,0 STARLINK-5192,1 54074U 22136Z   24087.90205604  .00000665  00000-0  59858-4 0  9997,2 54074  53.2183 299.0732 0001166  89.0831 271.0295 15.08842971 79398,6917.871,95.437,540.543,538.93,0.0
54074.0,STARLINK-5192,PAYLOAD,2024-03-28 07:11:15,15.08852518,0.0001273,53.2185,297.2907,78.8015,281.312,7.9613e-05,9.8e-06,0.0,0 STARLINK-5192,1 54074U 22136Z   24088.29948838  .00000980  00000-0  79613-4 0  9994,2 54074  53.2185 297.2907 0001273  78.8015 281.3120 15.08852518 79932,6917.842,95.437,540.588,538.826,0.0
54074.0,STARLINK-5192,PAYLOAD,2024-03-28 19:54:22,15.08821274,7.24e-05,53.2197,294.9101,87.6084,272.4991,-4.0912e-05,-9.38e-06,0.0,0 STARLINK-5192,1 54074U 22136Z   24088.82943244 -.00000938  00000-0 -40912-4 0  9994,2 54074  53.2197 294.9101 0000724  87.6084 272.4991 15.08821274 80012,6917.938,95.439,540.303,539.302,0.0
54074.0,STARLINK-5192,PAYLOAD,2024-03-28 21:29:45,15.08835151,0.0001235,53.2182,294.614,93.1675,266.9459,-1.4769e-05,-5.23e-06,0.0,0 STARLINK-5192,1 54074U 22136Z   24088.89566310 -.00000523  00000-0 -14769-4 0  9997,2 54074  53.2182 294.6140 0001235  93.1675 266.9459 15.08835151 79544,6917.895,95.438,540.615,538.906,0.0
54074.0,STARLINK-5192,PAYLOAD,2024-03-28 23:05:08,15.08836638,0.0001263,53.218,294.3152,90.3518,269.7619,4.0624e-06,-2.23e-06,0.0,0 STARLINK-5192,1 54074U 22136Z   24088.96190189 -.00000223  00000-0  40624-5 0  9998,2 54074  53.2180 294.3152 0001263  90.3518 269.7619 15.08836638 80034,6917.891,95.438,540.629,538.882,0.0
54074.0,STARLINK-5192,PAYLOAD,2024-03-29 13:23:36,15.08840567,0.0001791,53.219,291.6403,87.5063,272.6135,6.4162e-05,7.33e-06,0.0,0 STARLINK-5192,1 54074U 22136Z   24089.55805932  .00000733  00000-0  64162-4 0  9990,2 54074  53.2190 291.6403 0001791  87.5063 272.6135 15.08840567 79640,6917.879,95.438,540.983,538.505,0.0
54074.0,STARLINK-5192,PAYLOAD,2024-03-29 19:45:09,15.08836075,0.000133,53.2195,290.4501,93.9619,266.1525,6.5566e-05,7.56e-06,0.0,0 STARLINK-5192,1 54074U 22136Z   24089.82302125  .00000756  00000-0  65566-4 0  9990,2 54074  53.2195 290.4501 0001330  93.9619 266.1525 15.08836075 79682,6917.892,95.438,540.677,538.837,0.0
54074.0,STARLINK-5192,PAYLOAD,2024-03-30 06:52:51,15.08839396,0.0001219,53.2184,288.3698,91.1754,268.9378,-2.4229e-05,-6.73e-06,0.0,0 STARLINK-5192,1 54074U 22136Z   24090.28670256 -.00000673  00000-0 -24229-4 0  9996,2 54074  53.2184 288.3698 0001219  91.1754 268.9378 15.08839396 80237,6917.882,95.438,540.591,538.904,0.0
54074.0,STARLINK-5192,PAYLOAD,2024-03-30 22:46:41,15.08860109,0.0001199,53.2181,285.3964,101.3467,258.766,-5.4599e-06,-3.75e-06,0.0,0 STARLINK-5192,1 54074U 22136Z   24090.94909048 -.00000375  00000-0 -54599-5 0  9996,2 54074  53.2181 285.3964 0001199 101.3467 258.7660 15.08860109 79852,6917.819,95.436,540.513,538.854,0.0
54074.0,STARLINK-5192,PAYLOAD,2024-03-31 13:05:10,15.08837443,0.0001216,53.2154,282.7195,91.1904,268.9227,0.00014403,2.005e-05,0.0,0 STARLINK-5192,1 54074U 22136Z   24091.54525804  .00002005  00000-0  14403-3 0  9995,2 54074  53.2154 282.7195 0001216  91.1904 268.9227 15.08837443 80423,6917.888,95.438,540.594,538.912,0.0
54074.0,STARLINK-5192,PAYLOAD,2024-03-31 19:26:43,15.08835156,0.0001197,53.2171,281.5306,89.0906,271.0224,0.00012085,1.636e-05,0.0,0 STARLINK-5192,1 54074U 22136Z   24091.81022148  .00001636  00000-0  12085-3 0  9991,2 54074  53.2171 281.5306 0001197  89.0906 271.0224 15.08835156 79989,6917.895,95.438,540.588,538.932,0.0
54074.0,STARLINK-5192,PAYLOAD,2024-04-01 12:55:57,15.08842909,0.0001266,53.2173,278.2612,85.5648,274.5489,-1.447e-05,-5.18e-06,0.0,0 STARLINK-5192,1 54074U 22136Z   24092.53886158 -.00000518  00000-0 -14470-4 0  9991,2 54074  53.2173 278.2612 0001266  85.5648 274.5489 15.08842909 80094,6917.871,95.437,540.612,538.861,0.0
54074.0,STARLINK-5192,PAYLOAD,2024-04-01 19:17:30,15.08840158,0.0001231,53.2181,277.0696,86.5401,273.5732,-9.4566e-06,-4.38e-06,0.0,0 STARLINK-5192,1 54074U 22136Z   24092.80382236 -.00000438  00000-0 -94566-5 0  9995,2 54074  53.2181 277.0696 0001231  86.5401 273.5732 15.08840158 80614,6917.88,95.438,540.596,538.893,0.0
54074.0,STARLINK-5192,PAYLOAD,2024-04-02 04:49:48,15.08845249,0.0001209,53.2183,275.2852,84.8258,275.2872,3.1844e-05,2.19e-06,0.0,0 STARLINK-5192,1 54074U 22136Z   24093.20125726  .00000219  00000-0  31844-4 0  9993,2 54074  53.2183 275.2852 0001209  84.8258 275.2872 15.08845249 80199,6917.864,95.437,540.566,538.893,0.0
54074.0,STARLINK-5192,PAYLOAD,2024-04-02 19:08:17,15.08833401,0.0001383,53.2195,272.6124,100.6324,259.4824,7.4707e-06,-1.69e-06,0.0,0 STARLINK-5192,1 54074U 22136Z   24093.79742639 -.00000169  00000-0  74707-5 0  9996,2 54074  53.2195 272.6124 0001383 100.6324 259.4824 15.08833401 80287,6917.901,95.438,540.722,538.809,0.0
54074.0,STARLINK-5192,PAYLOAD,2024-04-03 04:40:35,15.08841159,0.0001402,53.2198,270.8277,93.0734,267.0419,6.3263e-05,7.19e-06,0.0,0 STARLINK-5192,1 54074U 22136Z   24094.19486067  .00000719  00000-0  63263-4 0  9995,2 54074  53.2198 270.8277 0001402  93.0734 267.0419 15.08841159 80825,6917.877,95.437,540.712,538.772,0.0
54074.0,STARLINK-5192,PAYLOAD,2024-04-03 20:34:27,15.0883788,0.0001454,53.219,267.8546,97.3314,262.7844,6.5744e-05,7.58e-06,0.0,0 STARLINK-5192,1 54074U 22136Z   24094.85726359  .00000758  00000-0  65744-4 0  9998,2 54074  53.2190 267.8546 0001454  97.3314 262.7844 15.08837880 80448,6917.887,95.438,540.758,538.746,0.0
54074.0,STARLINK-5192,PAYLOAD,2024-04-04 10:52:55,15.08840434,0.000132,53.2176,265.1776,89.9474,270.1669,5.1756e-05,5.36e-06,0.0,0 STARLINK-5192,1 54074U 22136Z   24095.45342164  .00000536  00000-0  51756-4 0  9995,2 54074  53.2176 265.1776 0001320  89.9474 270.1669 15.08840434 81015,6917.879,95.438,540.657,538.831,0.0
54074.0,STARLINK-5192,PAYLOAD,2024-04-04 18:49:51,15.08835357,0.0001294,53.2177,263.6893,85.1799,274.9341,2.0018e-05,3.1e-07,0.0,0 STARLINK-5192,1 54074U 22136Z   24095.78462730  .00000031  00000-0  20018-4 0  9990,2 54074  53.2177 263.6893 0001294  85.1799 274.9341 15.08835357 81069,6917.895,95.438,540.655,538.864,0.0
54074.0,STARLINK-5192,PAYLOAD,2024-04-05 04:22:09,15.08845132,0.000131,53.2178,261.9041,81.2076,278.9065,7.9429e-05,9.77e-06,0.0,0 STARLINK-5192,1 54074U 22136Z   24096.18205890  .00000977  00000-0  79429-4 0  9996,2 54074  53.2178 261.9041 0001310  81.2076 278.9065 15.08845132 81126,6917.865,95.437,540.636,538.823,0.0
54074.0,STARLINK-5192,PAYLOAD,2024-04-05 10:43:42,15.08842208,0.0001309,53.2172,260.714,85.5104,274.6037,8.4699e-05,1.06e-05,0.0,0 STARLINK-5192,1 54074U 22136Z   24096.44701932  .00001060  00000-0  84699-4 0  9992,2 54074  53.2172 260.7140 0001309  85.5104 274.6037 15.08842208 80687,6917.874,95.437,540.644,538.833,0.0
54074.0,STARLINK-5192,PAYLOAD,2024-04-05 17:05:15,15.08841838,0.0001287,53.2169,259.5245,86.5875,273.5264,7.5753e-05,9.18e-06,0.0,0 STARLINK-5192,1 54074U 22136Z   24096.71197943  .00000918  00000-0  75753-4 0  9995,2 54074  53.2169 259.5245 0001287  86.5875 273.5264 15.08841838 80729,6917.875,95.437,540.63,538.849,0.0
54074.0,STARLINK-5192,PAYLOAD,2024-04-06 10:34:29,15.08839142,0.0001598,53.2167,256.2538,96.2998,263.8176,6.7284e-05,7.83e-06,0.0,0 STARLINK-5192,1 54074U 22136Z   24097.44061921  .00000783  00000-0  67284-4 0  9992,2 54074  53.2167 256.2538 0001598  96.2998 263.8176 15.08839142 81310,6917.883,95.438,540.853,538.643,0.0
54074.0,STARLINK-5192,PAYLOAD,2024-04-06 20:06:48,15.08836202,0.0001565,53.2179,254.4692,95.0211,265.096,-2.4075e-05,-6.71e-06,0.0,0 STARLINK-5192,1 54074U 22136Z   24097.83806519 -.00000671  00000-0 -24075-4 0  9994,2 54074  53.2179 254.4692 0001565  95.0211 265.0960 15.08836202 80894,6917.892,95.438,540.84,538.674,0.0
54074.0,STARLINK-5192,PAYLOAD,2024-04-07 05:39:07,15.08843733,0.0001382,53.216,252.6871,85.6448,274.4702,-1.6173e-06,-3.14e-06,0.0,0 STARLINK-5192,1 54074U 22136Z   24098.23549916 -.00000314  00000-0 -16173-5 0  9999,2 54074  53.2160 252.6871 0001382  85.6448 274.4702 15.08843733 80959,6917.869,95.437,540.69,538.778,0.0
54074.0,STARLINK-5192,PAYLOAD,2024-04-07 19:57:35,15.08837309,0.0001505,53.22,250.0113,91.1923,268.9242,-4.2763e-05,-9.68e-06,0.0,0 STARLINK-5192,1 54074U 22136Z   24098.83166582 -.00000968  00000-0 -42763-4 0  9997,2 54074  53.2200 250.0113 0001505  91.1923 268.9242 15.08837309 81525,6917.889,95.438,540.795,538.712,0.0
54074.0,STARLINK-5192,PAYLOAD,2024-04-08 19:48:22,15.08837622,0.0001361,53.2159,245.5509,86.7893,273.3255,7.5218e-05,9.09e-06,0.0,0 STARLINK-5192,1 54074U 22136Z   24099.82526336  .00000909  00000-0  75218-4 0  9998,2 54074  53.2159 245.5509 0001361  86.7893 273.3255 15.08837622 81197,6917.888,95.438,540.694,538.811,0.0
54074.0,STARLINK-5192,PAYLOAD,2024-04-09 02:09:54,15.08855012,0.0001336,53.2173,244.362,90.5737,269.5408,3.22e-06,-2.37e-06,0.0,0 STARLINK-5192,1 54074U 22136Z   24100.09021339 -.00000237  00000-0  32200-5 0  9993,2 54074  53.2173 244.3620 0001336  90.5737 269.5408 15.08855012 81714,6917.835,95.437,540.624,538.775,0.0
54074.0,STARLINK-5192,PAYLOAD,2024-04-09 10:06:52,15.08791393,0.0001445,53.2258,242.8767,101.0032,259.1122,0.00061987,9.578e-05,0.0,0 STARLINK-5192,1 54074U 22136Z   24100.42143589  .00009578  00000-0  61987-3 0  9990,2 54074  53.2258 242.8767 0001445 101.0032 259.1122 15.08791393 81764,6918.029,95.441,540.894,538.894,0.0
54074.0,STARLINK-5192,PAYLOAD,2024-04-09 19:39:10,15.08831761,0.0001795,53.2191,241.0909,94.1309,265.9888,-1.515e-05,-5.29e-06,0.0,0 STARLINK-5192,1 54074U 22136Z   24100.81887410 -.00000529  00000-0 -15150-4 0  9992,2 54074  53.2191 241.0909 0001795  94.1309 265.9888 15.08831761 81821,6917.906,95.438,541.012,538.529,0.0
